SBSS (USA 216)          
1 37168U 10048A   26068.88624904  .00004946  00000+0  24191-3 0  9993
2 37168  97.7474 312.3885 0082264 184.8326 306.5835 15.15724210837421
STARLINK-34281          
1 64260U 25120E   26068.53707389  .00024720  00000+0  84395-3 0  9998
2 64260  53.1584 117.3400 0001214  87.7826 272.3314 15.30201595 43840
