[{"OBJECT_NAME":"SBSS (USA 216)","OBJECT_ID":"2010-048A","EPOCH":"2026-03-09T21:16:11.917056","MEAN_MOTION":15.1572421,"ECCENTRICITY":0.0082264,"INCLINATION":97.7474,"RA_OF_ASC_NODE":312.3885,"ARG_OF_PERICENTER":184.8326,"MEAN_ANOMALY":306.5835,"EPHEMERIS_TYPE":0,"CLASSIFICATION_TYPE":"U","NORAD_CAT_ID":37168,"ELEMENT_SET_NO":999,"REV_AT_EPOCH":83742,"BSTAR":0.00024191,"MEAN_MOTION_DOT":4.946e-5,"MEAN_MOTION_DDOT":0},{"OBJECT_NAME":"STARLINK-34281","OBJECT_ID":"2025-120E","EPOCH":"2026-03-09T12:53:23.184096","MEAN_MOTION":15.30201595,"ECCENTRICITY":0.00012148,"INCLINATION":53.1584,"RA_OF_ASC_NODE":117.34,"ARG_OF_PERICENTER":87.7826,"MEAN_ANOMALY":272.3314,"EPHEMERIS_TYPE":0,"CLASSIFICATION_TYPE":"U","NORAD_CAT_ID":64260,"ELEMENT_SET_NO":999,"REV_AT_EPOCH":4384,"BSTAR":0.00084394621,"MEAN_MOTION_DOT":0.0002472,"MEAN_MOTION_DDOT":0}]
